# HTTP: METAR (EGNM) — 2026-04-05T224948

**URL:** `https://aviationweather.gov/api/data/metar?ids=EGNM&format=json&taf=false`
**HTTP status:** 200

```
[{"icaoId":"EGNM","receiptTime":"2026-04-05T22:24:11.513Z","obsTime":1775427600,"reportTime":"2026-04-05T22:20:00.000Z","temp":4,"dewp":0,"wdir":250,"wspd":9,"visib":"6+","altim":1022,"qcField":0,"metarType":"METAR","rawOb":"METAR EGNM 052220Z 25009KT CAVOK 04/00 Q1022","lat":53.862,"lon":-1.665,"elev":221,"name":"Leeds Bradford Intl, EN, GB","cover":"CAVOK","clouds":[],"fltCat":"VFR"}]
```
