# HTTP: METAR (EGNM) — 2026-04-06T115546

**URL:** `https://aviationweather.gov/api/data/metar?ids=EGNM&format=json&taf=false`
**HTTP status:** 200

```
[{"icaoId":"EGNM","receiptTime":"2026-04-06T11:54:25.989Z","obsTime":1775476200,"reportTime":"2026-04-06T12:00:00.000Z","temp":11,"dewp":2,"wdir":140,"wspd":10,"visib":"6+","altim":1024,"qcField":0,"metarType":"METAR","rawOb":"METAR EGNM 061150Z 14010KT 100V190 9999 FEW030 11/02 Q1024","lat":53.862,"lon":-1.665,"elev":221,"name":"Leeds Bradford Intl, EN, GB","cover":"FEW","clouds":[{"cover":"FEW","base":3000}],"fltCat":"VFR"}]
```
