# HTTP: METAR (EGNM) — 2026-04-06T212525

**URL:** `https://aviationweather.gov/api/data/metar?ids=EGNM&format=json&taf=false`
**HTTP status:** 200

```
[{"icaoId":"EGNM","receiptTime":"2026-04-06T21:24:21.838Z","obsTime":1775510400,"reportTime":"2026-04-06T21:20:00.000Z","temp":7,"dewp":1,"wdir":140,"wspd":6,"visib":"6+","altim":1023,"qcField":0,"metarType":"METAR","rawOb":"METAR EGNM 062120Z 14006KT CAVOK 07/01 Q1023","lat":53.862,"lon":-1.665,"elev":221,"name":"Leeds Bradford Intl, EN, GB","cover":"CAVOK","clouds":[],"fltCat":"VFR"}]
```
