# HTTP: METAR (EGNM) — 2026-04-14T074727

**URL:** `https://aviationweather.gov/api/data/metar?ids=EGNM&format=json&taf=false`
**HTTP status:** 200

```
[{"icaoId":"EGNM","receiptTime":"2026-04-14T07:24:07.974Z","obsTime":1776151200,"reportTime":"2026-04-14T07:20:00.000Z","temp":4,"dewp":3,"wdir":140,"wspd":4,"visib":"6+","altim":1015,"qcField":0,"metarType":"METAR","rawOb":"METAR EGNM 140720Z 14004KT CAVOK 04/03 Q1015","lat":53.862,"lon":-1.665,"elev":221,"name":"Leeds Bradford Intl, EN, GB","cover":"CAVOK","clouds":[],"fltCat":"VFR"}]
```
