# HTTP: METAR (EGNM) — 2026-04-05T200916

**URL:** `https://aviationweather.gov/api/data/metar?ids=EGNM&format=json&taf=false`
**HTTP status:** 200

```
[{"icaoId":"EGNM","receiptTime":"2026-04-05T19:54:20.193Z","obsTime":1775418600,"reportTime":"2026-04-05T20:00:00.000Z","temp":5,"dewp":0,"wdir":250,"wspd":11,"visib":"6+","altim":1021,"qcField":0,"metarType":"METAR","rawOb":"METAR EGNM 051950Z 25011KT 9999 FEW040 05/M00 Q1021","lat":53.862,"lon":-1.665,"elev":221,"name":"Leeds Bradford Intl, EN, GB","cover":"FEW","clouds":[{"cover":"FEW","base":4000}],"fltCat":"VFR"}]
```
