# HTTP: METAR (EGNM) — 2026-04-05T140417

**URL:** `https://aviationweather.gov/api/data/metar?ids=EGNM&format=json&taf=false`
**HTTP status:** 200

```
[
    {
        "icaoId": "EGNM",
        "receiptTime": "2026-04-05T12:54:20.621Z",
        "obsTime": 1775393400,
        "reportTime": "2026-04-05T13:00:00.000Z",
        "temp": 6,
        "dewp": -1,
        "wdir": 260,
        "wspd": 20,
        "wgst": 32,
        "visib": "6+",
        "altim": 1014,
        "qcField": 0,
        "wxString": "-SHRA",
        "metarType": "METAR",
        "rawOb": "METAR EGNM 051250Z 26020G32KT 9999 -SHRA SCT028 SCT042CB 06/M01 Q1014",
        "lat": 53.862,
        "lon": -1.665,
        "elev": 221,
        "name": "Leeds Bradford Intl, EN, GB",
        "cover": "SCT",
        "clouds": [
            {
                "cover": "SCT",
                "base": 2800
            },
            {
                "cover": "SCT",
                "base": 4200
            }
        ],
        "fltCat": "VFR"
    }
]
```
